{"type": "FeatureCollection", "features": [ {"type": "Feature", "properties": {"norad_id": 32203, "name": "FENGYUN 1C DEB", "group": "fengyun-1c-debris", "lat": -80.25896904419908, "lon": 15.940225787917065, "alt_km": 548.0286865366552, "timestamp": "2025-12-16T10:53:45.755643+00:00", "meta": {"OBJECT_NAME": "FENGYUN 1C DEB", "OBJECT_ID": "1999-025CUZ", "EPOCH": "2025-12-15T22:51:18.412416", "MEAN_MOTION": 15.41076828, "ECCENTRICITY": 0.01439654, "INCLINATION": 97.0174, "RA_OF_ASC_NODE": 241.3098, "ARG_OF_PERICENTER": 80.3656, "MEAN_ANOMALY": 281.3822, "EPHEMERIS_TYPE": 0, "CLASSIFICATION_TYPE": "U", "NORAD_CAT_ID": 32203, "ELEMENT_SET_NO": 999, "REV_AT_EPOCH": 75147, "BSTAR": 0.00061158784, "MEAN_MOTION_DOT": 0.00036829, "MEAN_MOTION_DDOT": 0}, "tle": {"line1": "1 32203U 99025CUZ 25349.95229644  .00036829  00000+0  61159-3 0  9991", "line2": "2 32203  97.0174 241.3098 0143965  80.3656 281.3822 15.41076828751475"}}, "geometry": {"type": "Point", "coordinates": [15.940225787917065, -80.25896904419908]}}, {"type": "Feature", "properties": {"norad_id": 32205, "name": "FENGYUN 1C DEB", "group": "fengyun-1c-debris", "lat": -6.127635574130255, "lon": 173.3048913595587, "alt_km": 850.3245682961897, "timestamp": "2025-12-16T10:53:45.755655+00:00", "meta": {"OBJECT_NAME": "FENGYUN 1C DEB", "OBJECT_ID": "1999-025CVB", "EPOCH": "2025-12-14T07:07:56.328672", "MEAN_MOTION": 14.13912509, "ECCENTRICITY": 0.00100286, "INCLINATION": 98.6781, "RA_OF_ASC_NODE": 352.1507, "ARG_OF_PERICENTER": 287.4042, "MEAN_ANOMALY": 86.5328, "EPHEMERIS_TYPE": 0, "CLASSIFICATION_TYPE": "U", "NORAD_CAT_ID": 32205, "ELEMENT_SET_NO": 999, "REV_AT_EPOCH": 94520, "BSTAR": 0.00022484795, "MEAN_MOTION_DOT": 3.84e-06, "MEAN_MOTION_DDOT": 0}, "tle": {"line1": "1 32205U 99025CVB 25348.29717973  .00000384  00000+0  22485-3 0  9992", "line2": "2 32205  98.6781 352.1507 0010028 287.4042  86.5328 14.13912509945201"}}, "geometry": {"type": "Point", "coordinates": [173.3048913595587, -6.127635574130255]}}, {"type": "Feature", "properties": {"norad_id": 32207, "name": "FENGYUN 1C DEB", "group": "fengyun-1c-debris", "lat": -77.10377800629051, "lon": 80.52906639671107, "alt_km": 809.6201231205323, "timestamp": "2025-12-16T10:53:45.755667+00:00", "meta": {"OBJECT_NAME": "FENGYUN 1C DEB", "OBJECT_ID": "1999-025CVD", "EPOCH": "2025-12-12T04:00:31.760928", "MEAN_MOTION": 14.39569701, "ECCENTRICITY": 0.00852472, "INCLINATION": 99.8553, "RA_OF_ASC_NODE": 305.0027, "ARG_OF_PERICENTER": 139.3042, "MEAN_ANOMALY": 236.8167, "EPHEMERIS_TYPE": 0, "CLASSIFICATION_TYPE": "U", "NORAD_CAT_ID": 32207, "ELEMENT_SET_NO": 999, "REV_AT_EPOCH": 64299, "BSTAR": 0.00048704631, "MEAN_MOTION_DOT": 1.529e-05, "MEAN_MOTION_DDOT": 0}, "tle": {"line1": "1 32207U 99025CVD 25346.16703427  .00001529  00000+0  48705-3 0  9992", "line2": "2 32207  99.8553 305.0027 0085247 139.3042 236.8167 14.39569701642998"}}, "geometry": {"type": "Point", "coordinates": [80.52906639671107, -77.10377800629051]}}, {"type": "Feature", "properties": {"norad_id": 32209, "name": "FENGYUN 1C DEB", "group": "fengyun-1c-debris", "lat": -23.023262284393898, "lon": -58.29299539892958, "alt_km": 892.1781306529701, "timestamp": "2025-12-16T10:53:45.755677+00:00", "meta": {"OBJECT_NAME": "FENGYUN 1C DEB", "OBJECT_ID": "1999-025CVF", "EPOCH": "2025-12-15T02:55:21.658080", "MEAN_MOTION": 13.47182795, "ECCENTRICITY": 0.03332684, "INCLINATION": 99.4209, "RA_OF_ASC_NODE": 296.4051, "ARG_OF_PERICENTER": 19.3658, "MEAN_ANOMALY": 341.9798, "EPHEMERIS_TYPE": 0, "CLASSIFICATION_TYPE": "U", "NORAD_CAT_ID": 32209, "ELEMENT_SET_NO": 999, "REV_AT_EPOCH": 90008, "BSTAR": 0.0023211404, "MEAN_MOTION_DOT": 1.942e-05, "MEAN_MOTION_DDOT": 0}, "tle": {"line1": "1 32209U 99025CVF 25349.12177845  .00001942  00000+0  23211-2 0  9995", "line2": "2 32209  99.4209 296.4051 0333268  19.3658 341.9798 13.47182795900080"}}, "geometry": {"type": "Point", "coordinates": [-58.29299539892958, -23.023262284393898]}}, {"type": "Feature", "properties": {"norad_id": 32212, "name": "FENGYUN 1C DEB", "group": "fengyun-1c-debris", "lat": -27.511063930936537, "lon": 92.6255029523292, "alt_km": 771.3788053332328, "timestamp": "2025-12-16T10:53:45.755688+00:00", "meta": {"OBJECT_NAME": "FENGYUN 1C DEB", "OBJECT_ID": "1999-025CVJ", "EPOCH": "2025-12-15T00:50:05.759232", "MEAN_MOTION": 14.40331045, "ECCENTRICITY": 0.01378669, "INCLINATION": 99.573, "RA_OF_ASC_NODE": 85.997, "ARG_OF_PERICENTER": 71.8984, "MEAN_ANOMALY": 107.0656, "EPHEMERIS_TYPE": 0, "CLASSIFICATION_TYPE": "U", "NORAD_CAT_ID": 32212, "ELEMENT_SET_NO": 999, "REV_AT_EPOCH": 96094, "BSTAR": 0.00036712658, "MEAN_MOTION_DOT": 1.244e-05, "MEAN_MOTION_DDOT": 0}, "tle": {"line1": "1 32212U 99025CVJ 25349.03478888  .00001244  00000+0  36713-3 0  9997", "line2": "2 32212  99.5730  85.9970 0137866  71.8984 107.0656 14.40331045960949"}}, "geometry": {"type": "Point", "coordinates": [92.6255029523292, -27.511063930936537]}}, {"type": "Feature", "properties": {"norad_id": 32214, "name": "FENGYUN 1C DEB", "group": "fengyun-1c-debris", "lat": -39.98637548459556, "lon": -171.70432067785353, "alt_km": 1067.7338340001852, "timestamp": "2025-12-16T10:53:45.755698+00:00", "meta": {"OBJECT_NAME": "FENGYUN 1C DEB", "OBJECT_ID": "1999-025CVL", "EPOCH": "2025-12-13T20:31:12.775008", "MEAN_MOTION": 13.90553619, "ECCENTRICITY": 0.01883237, "INCLINATION": 99.0447, "RA_OF_ASC_NODE": 13.4424, "ARG_OF_PERICENTER": 36.1609, "MEAN_ANOMALY": 141.1288, "EPHEMERIS_TYPE": 0, "CLASSIFICATION_TYPE": "U", "NORAD_CAT_ID": 32214, "ELEMENT_SET_NO": 999, "REV_AT_EPOCH": 62437, "BSTAR": 0.004789096, "MEAN_MOTION_DOT": 6.844e-05, "MEAN_MOTION_DDOT": 0}, "tle": {"line1": "1 32214U 99025CVL 25347.85500897  .00006844  00000+0  47891-2 0  9992", "line2": "2 32214  99.0447  13.4424 0188323  36.1609 141.1288 13.90553619624374"}}, "geometry": {"type": "Point", "coordinates": [-171.70432067785353, -39.98637548459556]}}, {"type": "Feature", "properties": {"norad_id": 32218, "name": "FENGYUN 1C DEB", "group": "fengyun-1c-debris", "lat": -57.595108526739715, "lon": -9.624776298922848, "alt_km": 759.5009708378802, "timestamp": "2025-12-16T10:53:45.755709+00:00", "meta": {"OBJECT_NAME": "FENGYUN 1C DEB", "OBJECT_ID": "1999-025CVQ", "EPOCH": "2025-12-15T19:01:31.935072", "MEAN_MOTION": 14.55509022, "ECCENTRICITY": 0.00631695, "INCLINATION": 98.8118, "RA_OF_ASC_NODE": 183.8234, "ARG_OF_PERICENTER": 58.3228, "MEAN_ANOMALY": 317.3889, "EPHEMERIS_TYPE": 0, "CLASSIFICATION_TYPE": "U", "NORAD_CAT_ID": 32218, "ELEMENT_SET_NO": 999, "REV_AT_EPOCH": 96277, "BSTAR": 0.00052045044, "MEAN_MOTION_DOT": 2.274e-05, "MEAN_MOTION_DDOT": 0}, "tle": {"line1": "1 32218U 99025CVQ 25349.79273073  .00002274  00000+0  52045-3 0  9995", "line2": "2 32218  98.8118 183.8234 0063169  58.3228 317.3889 14.55509022962778"}}, "geometry": {"type": "Point", "coordinates": [-9.624776298922848, -57.595108526739715]}}, {"type": "Feature", "properties": {"norad_id": 32221, "name": "FENGYUN 1C DEB", "group": "fengyun-1c-debris", "lat": 9.035307472612951, "lon": -38.13572816203993, "alt_km": 614.8603865013984, "timestamp": "2025-12-16T10:53:45.755719+00:00", "meta": {"OBJECT_NAME": "FENGYUN 1C DEB", "OBJECT_ID": "1999-025CVT", "EPOCH": "2025-12-15T16:01:00.694560", "MEAN_MOTION": 14.58710853, "ECCENTRICITY": 0.01468852, "INCLINATION": 98.5654, "RA_OF_ASC_NODE": 139.68, "ARG_OF_PERICENTER": 136.7609, "MEAN_ANOMALY": 224.5231, "EPHEMERIS_TYPE": 0, "CLASSIFICATION_TYPE": "U", "NORAD_CAT_ID": 32221, "ELEMENT_SET_NO": 999, "REV_AT_EPOCH": 97240, "BSTAR": 0.00030809719, "MEAN_MOTION_DOT": 1.613e-05, "MEAN_MOTION_DDOT": 0}, "tle": {"line1": "1 32221U 99025CVT 25349.66736915  .00001613  00000+0  30810-3 0  9996", "line2": "2 32221  98.5654 139.6800 0146885 136.7609 224.5231 14.58710853972403"}}, "geometry": {"type": "Point", "coordinates": [-38.13572816203993, 9.035307472612951]}}, {"type": "Feature", "properties": {"norad_id": 32223, "name": "FENGYUN 1C DEB", "group": "fengyun-1c-debris", "lat": -80.69475311993101, "lon": 141.26406585964406, "alt_km": 801.484929278955, "timestamp": "2025-12-16T10:53:45.755730+00:00", "meta": {"OBJECT_NAME": "FENGYUN 1C DEB", "OBJECT_ID": "1999-025CVV", "EPOCH": "2025-12-13T23:18:00.552672", "MEAN_MOTION": 14.20905079, "ECCENTRICITY": 0.00468432, "INCLINATION": 98.839, "RA_OF_ASC_NODE": 67.0353, "ARG_OF_PERICENTER": 313.8611, "MEAN_ANOMALY": 224.3875, "EPHEMERIS_TYPE": 0, "CLASSIFICATION_TYPE": "U", "NORAD_CAT_ID": 32223, "ELEMENT_SET_NO": 999, "REV_AT_EPOCH": 64241, "BSTAR": 0.0016444924, "MEAN_MOTION_DOT": 3.554e-05, "MEAN_MOTION_DDOT": 0}, "tle": {"line1": "1 32223U 99025CVV 25347.97083973  .00003554  00000+0  16445-2 0  9992", "line2": "2 32223  98.8390  67.0353 0046843 313.8611 224.3875 14.20905079642418"}}, "geometry": {"type": "Point", "coordinates": [141.26406585964406, -80.69475311993101]}}, {"type": "Feature", "properties": {"norad_id": 32224, "name": "FENGYUN 1C DEB", "group": "fengyun-1c-debris", "lat": -20.498681931473595, "lon": 118.21650923339813, "alt_km": 828.5276684339597, "timestamp": "2025-12-16T10:53:45.755740+00:00", "meta": {"OBJECT_NAME": "FENGYUN 1C DEB", "OBJECT_ID": "1999-025CVW", "EPOCH": "2025-12-14T14:25:50.796768", "MEAN_MOTION": 14.34026047, "ECCENTRICITY": 0.00771719, "INCLINATION": 98.984, "RA_OF_ASC_NODE": 299.6833, "ARG_OF_PERICENTER": 61.1307, "MEAN_ANOMALY": 299.7593, "EPHEMERIS_TYPE": 0, "CLASSIFICATION_TYPE": "U", "NORAD_CAT_ID": 32224, "ELEMENT_SET_NO": 999, "REV_AT_EPOCH": 95750, "BSTAR": 0.00040405507, "MEAN_MOTION_DOT": 1.12e-05, "MEAN_MOTION_DDOT": 0}, "tle": {"line1": "1 32224U 99025CVW 25348.60128237  .00001120  00000+0  40406-3 0  9999", "line2": "2 32224  98.9840 299.6833 0077171  61.1307 299.7593 14.34026047957505"}}, "geometry": {"type": "Point", "coordinates": [118.21650923339813, -20.498681931473595]}}]}